AEHF-4 (USA 288)        
1 43651U 18079A   26169.52511990 -.00000282  00000+0  00000+0 0  9991
2 43651   1.4328   4.1306 0060379 356.0081  28.1526  1.00272122 28316
BEIDOU-3 G1             
1 43683U 18085A   26169.57008891 -.00000116  00000+0  00000+0 0  9995
2 43683   2.8721  97.3293 0008066 349.9884 184.6705  1.00270293 28076
GSAT-29                 
1 43698U 18089A   26167.98088671  .00000000  00000+0  00000+0 0  9993
2 43698   0.0121   5.2223 0003261  64.7926 243.4163  1.00274142 27784
ES'HAIL 2               
1 43700U 18090A   26169.54357998  .00000138  00000+0  00000+0 0  9996
2 43700   0.0163  25.5312 0001685  98.6204   4.0957  1.00271405 27692
GEO-KOMPSAT-2A          
1 43823U 18100A   26169.62698715 -.00000350  00000+0  00000+0 0  9995
2 43823   0.0492 157.8937 0001849 289.7421 173.1968  1.00269254 27645
GSAT-11                 
1 43824U 18100B   26169.55306852 -.00000083  00000+0  00000+0 0  9999
2 43824   0.0307 242.2344 0007729 205.9316  91.7258  1.00271294 27495
GSAT-7A                 
1 43864U 18105A   26169.55086000  .00000020  00000+0  00000+0 0  9998
2 43864   0.0216  85.4148 0001984 338.7329 103.7026  1.00271379 27461
COSMOS 2533             
1 43867U 18107A   26168.69679124 -.00000043  00000+0  00000+0 0  9998
2 43867   0.0491  89.9947 0000945  42.6956  94.0812  1.00270501 27458
TJS-3                   
1 43874U 18110A   26168.80083983 -.00000223  00000+0  00000+0 0  9995
2 43874   2.5471  80.4839 0002166  82.2220 179.8966  1.00270373 27424
ZHONGXING-2D            
1 43920U 19001A   26169.62740262 -.00000343  00000+0  00000+0 0  9991
2 43920   0.0331 238.7578 0001378  96.7975 287.1889  1.00270639 54098
HELLAS-SAT 4 & SGS-1    
1 44034U 19007A   26169.54617999  .00000146  00000+0  00000+0 0  9995
2 44034   0.0765 127.5575 0004739  13.2047   1.6726  1.00269077 27381
GSAT-31                 
1 44035U 19007B   26169.54791332  .00000119  00000+0  00000+0 0  9990
2 44035   0.0616 257.6895 0001669 107.6141 146.5911  1.00275067 26985
NUSANTARA SATU          
1 44048U 19009A   26169.56731557 -.00000241  00000+0  00000+0 0  9998
2 44048   0.0405 133.1754 0004306 343.9709 139.8997  1.00270129 26784
ZHONGXING-6C            
1 44067U 19012A   26169.62743339 -.00000342  00000+0  00000+0 0  9993
2 44067   0.0781  72.2471 0014034 337.5725 213.3187  1.00273021 26757
WGS 10 (USA 291)        
1 44071U 19014A   26169.47907943  .00000041  00000+0  00000+0 0  9991
2 44071   0.0166  13.4524 0000536 330.4658 155.5814  1.00270668 26639
TIANLIAN 2-01           
1 44076U 19017A   26169.55367519 -.00000113  00000+0  00000+0 0  9998
2 44076   0.5444  83.1109 0000756  32.1320  67.8793  1.00271015 26668
ARABSAT-6A              
1 44186U 19021A   26169.54444664  .00000147  00000+0  00000+0 0  9997
2 44186   0.0499  10.8449 0001618 340.2420 142.1534  1.00274523 26174
BEIDOU-3 IGSO-1         
1 44204U 19023A   26169.60920451 -.00000224  00000+0  00000+0 0  9997
2 44204  58.6970  37.6341 0025544 225.7171 340.8879  1.00291017  7221
BEIDOU-2 G8             
1 44231U 19027A   26169.63336627 -.00000254  00000+0  00000+0 0  9993
2 44231   1.6623  74.4988 0010149 281.9316 282.9878  1.00270302 26095
YAMAL 601               
1 44307U 19031A   26169.54817332  .00000114  00000+0  00000+0 0  9993
2 44307   0.0263  73.0889 0002405  16.7504  63.2879  1.00271870 25941
AT&T T-16               
1 44333U 19034A   26169.51844653 -.00000122  00000+0  00000+0 0  9998
2 44333   0.0213  64.3039 0000712 241.0117  47.2208  1.00272817 25644
EUTELSAT 7C             
1 44334U 19034B   26169.53985329  .00000042  00000+0  00000+0 0  9997
2 44334   0.0727 176.5526 0003166 248.7431  42.8364  1.00271203  6844
BEIDOU-3 IGSO-2         
1 44337U 19035A   26165.62361995 -.00000071  00000+0  00000+0 0  9997
2 44337  55.2456 158.8849 0039904 216.4592 231.8306  1.00267330 25649
COSMOS 2539             
1 44457U 19048A   26168.68531434  .00000075  00000+0  00000+0 0  9993
2 44457   0.0381  88.9288 0000824   1.8028  73.8927  1.00270013 25236
EDRS-C                  
1 44475U 19049A   26169.42411544  .00000000  00000+0  00000+0 0  9994
2 44475   0.0121  39.6286 0000227  30.2290 131.9881  1.00267064 25229
INTELSAT 39 (IS-39)     
1 44476U 19049B   26169.59224809  .00000000  00000+0  00000+0 0  9999
2 44476   0.0192   7.9058 0000901 304.4232 229.6669  1.00273932 25145
AMOS-17                 
1 44479U 19050A   26169.54175997  .00000103  00000+0  00000+0 0  9996
2 44479   0.0264 311.0637 0001820 174.5263 353.2225  1.00273492 25201
AEHF-5 (USA 292)        
1 44481U 19051A   26169.60451400 -.00000264  00000+0  00000+0 0  9992
2 44481   1.4526 336.3579 0066287 359.9463 241.2309  1.00273336 25277
EUTELSAT 5 WEST B       
1 44624U 19067A   26169.39487120 -.00000048  00000+0  00000+0 0  9992
2 44624   0.0630 347.7413 0003095 102.7220 313.3513  1.00272992 24446
MEV-1                   
1 44625U 19067B   26167.92963140 -.00000149  00000+0  00000+0 0  9993
2 44625   0.8740 268.9828 0002794 179.8034 307.2103  1.00269616 61744
TJS-4                   
1 44637U 19070A   26169.66785928 -.00000176  00000+0  00000+0 0  9999
2 44637   0.0190  66.5281 0004368 330.4098 193.8744  1.00273843 24552
TIBA-1                  
1 44800U 19080A   26169.54548664  .00000149  00000+0  00000+0 0  9992
2 44800   0.0546  15.9305 0001881  82.1831  40.5186  1.00271559 24074
