OBJECT_NAME,OBJECT_ID,EPOCH,MEAN_MOTION,ECCENTRICITY,INCLINATION,RA_OF_ASC_NODE,ARG_OF_PERICENTER,MEAN_ANOMALY,EPHEMERIS_TYPE,CLASSIFICATION_TYPE,NORAD_CAT_ID,ELEMENT_SET_NO,REV_AT_EPOCH,BSTAR,MEAN_MOTION_DOT,MEAN_MOTION_DDOT
AEHF-4 (USA 288),2018-079A,2026-06-18T12:36:10.359360,1.00272122,.00603797,1.4328,4.1306,356.0081,28.1526,0,U,43651,999,2831,0,-.282E-5,0
BEIDOU-3 G1,2018-085A,2026-06-18T13:40:55.681824,1.00270293,.00080668,2.8721,97.3293,349.9884,184.6705,0,U,43683,999,2807,0,-.116E-5,0
GSAT-29,2018-089A,2026-06-16T23:32:28.611744,1.00274142,.0003261,0.0121,5.2223,64.7926,243.4163,0,U,43698,999,2778,0,0,0
ES'HAIL 2,2018-090A,2026-06-18T13:02:45.310272,1.00271405,.00016858,0.0163,25.5312,98.6204,4.0957,0,U,43700,999,2769,0,.138E-5,0
GEO-KOMPSAT-2A,2018-100A,2026-06-18T15:02:51.689760,1.00269254,.00018491,0.0492,157.8937,289.7421,173.1968,0,U,43823,999,2764,0,-.35E-5,0
GSAT-11,2018-100B,2026-06-18T13:16:25.120128,1.00271294,.0007729,0.0307,242.2344,205.9316,91.7258,0,U,43824,999,2749,0,-.83E-6,0
GSAT-7A,2018-105A,2026-06-18T13:13:14.304000,1.00271379,.00019849,0.0216,85.4148,338.7329,103.7026,0,U,43864,999,2746,0,.2E-6,0
COSMOS 2533,2018-107A,2026-06-17T16:43:22.763136,1.00270501,.00009457,0.0491,89.9947,42.6956,94.0812,0,U,43867,999,2745,0,-.43E-6,0
TJS-3,2018-110A,2026-06-17T19:13:12.561312,1.00270373,.0002166,2.5471,80.4839,82.2220,179.8966,0,U,43874,999,2742,0,-.223E-5,0
ZHONGXING-2D,2019-001A,2026-06-18T15:03:27.586368,1.00270639,.00013786,0.0331,238.7578,96.7975,287.1889,0,U,43920,999,5409,0,-.343E-5,0
HELLAS-SAT 4 & SGS-1,2019-007A,2026-06-18T13:06:29.951136,1.00269077,.00047398,0.0765,127.5575,13.2047,1.6726,0,U,44034,999,2738,0,.146E-5,0
GSAT-31,2019-007B,2026-06-18T13:08:59.710848,1.00275067,.00016698,0.0616,257.6895,107.6141,146.5911,0,U,44035,999,2698,0,.119E-5,0
NUSANTARA SATU,2019-009A,2026-06-18T13:36:56.065248,1.00270129,.00043066,0.0405,133.1754,343.9709,139.8997,0,U,44048,999,2678,0,-.241E-5,0
ZHONGXING-6C,2019-012A,2026-06-18T15:03:30.244896,1.00273021,.00140346,0.0781,72.2471,337.5725,213.3187,0,U,44067,999,2675,0,-.342E-5,0
WGS 10 (USA 291),2019-014A,2026-06-18T11:29:52.462752,1.00270668,.00005363,0.0166,13.4524,330.4658,155.5814,0,U,44071,999,2663,0,.41E-6,0
TIANLIAN 2-01,2019-017A,2026-06-18T13:17:17.536416,1.00271015,.00007566,0.5444,83.1109,32.1320,67.8793,0,U,44076,999,2666,0,-.113E-5,0
ARABSAT-6A,2019-021A,2026-06-18T13:04:00.189696,1.00274523,.00016184,0.0499,10.8449,340.2420,142.1534,0,U,44186,999,2617,0,.147E-5,0
BEIDOU-3 IGSO-1,2019-023A,2026-06-18T14:37:15.269664,1.00291017,.00255444,58.6970,37.6341,225.7171,340.8879,0,U,44204,999,722,0,-.224E-5,0
BEIDOU-2 G8,2019-027A,2026-06-18T15:12:02.845728,1.00270302,.00101493,1.6623,74.4988,281.9316,282.9878,0,U,44231,999,2609,0,-.254E-5,0
YAMAL 601,2019-031A,2026-06-18T13:09:22.174848,1.00271870,.00024059,0.0263,73.0889,16.7504,63.2879,0,U,44307,999,2594,0,.114E-5,0
AT&T T-16,2019-034A,2026-06-18T12:26:33.780192,1.00272817,.00007128,0.0213,64.3039,241.0117,47.2208,0,U,44333,999,2564,0,-.122E-5,0
EUTELSAT 7C,2019-034B,2026-06-18T12:57:23.324256,1.00271203,.00031668,0.0727,176.5526,248.7431,42.8364,0,U,44334,999,684,0,.42E-6,0
BEIDOU-3 IGSO-2,2019-035A,2026-06-14T14:58:00.763680,1.00267330,.0039904,55.2456,158.8849,216.4592,231.8306,0,U,44337,999,2564,0,-.71E-6,0
COSMOS 2539,2019-048A,2026-06-17T16:26:51.158976,1.00270013,.00008248,0.0381,88.9288,1.8028,73.8927,0,U,44457,999,2523,0,.75E-6,0
EDRS-C,2019-049A,2026-06-18T10:10:43.574016,1.00267064,.00002276,0.0121,39.6286,30.2290,131.9881,0,U,44475,999,2522,0,0,0
INTELSAT 39 (IS-39),2019-049B,2026-06-18T14:12:50.234976,1.00273932,.0000901,0.0192,7.9058,304.4232,229.6669,0,U,44476,999,2514,0,0,0
AMOS-17,2019-050A,2026-06-18T13:00:08.061408,1.00273492,.00018208,0.0264,311.0637,174.5263,353.2225,0,U,44479,999,2520,0,.103E-5,0
AEHF-5 (USA 292),2019-051A,2026-06-18T14:30:30.009600,1.00273336,.00662877,1.4526,336.3579,359.9463,241.2309,0,U,44481,999,2527,0,-.264E-5,0
EUTELSAT 5 WEST B,2019-067A,2026-06-18T09:28:36.871680,1.00272992,.00030957,0.0630,347.7413,102.7220,313.3513,0,U,44624,999,2444,0,-.48E-6,0
MEV-1,2019-067B,2026-06-16T22:18:40.152960,1.00269616,.00027946,0.8740,268.9828,179.8034,307.2103,0,U,44625,999,6174,0,-.149E-5,0
TJS-4,2019-070A,2026-06-18T16:01:43.041792,1.00273843,.00043688,0.0190,66.5281,330.4098,193.8744,0,U,44637,999,2455,0,-.176E-5,0
TIBA-1,2019-080A,2026-06-18T13:05:30.045696,1.00271559,.00018813,0.0546,15.9305,82.1831,40.5186,0,U,44800,999,2407,0,.149E-5,0
